DMSP 5D-3 F16 (USA 172) 
1 28054U 03048A   26064.81629560  .00000186  00000+0  12080-3 0  9997
2 28054  98.9996  87.9142 0008178  82.3141 330.2861 14.14460344154874
METEOSAT-9 (MSG-2)      
1 28912U 05049B   26064.59230808  .00000119  00000+0  00000+0 0  9992
2 28912   9.1276  55.1704 0001671 223.3348 143.8053  1.00277983  5962
DMSP 5D-3 F17 (USA 191) 
1 29522U 06050A   26064.71809436  .00000240  00000+0  14645-3 0  9995
2 29522  98.7413  73.3940 0009989 358.3688   1.7451 14.14961870997785
FENGYUN 3A              
1 32958U 08026A   26064.71759741  .00000161  00000+0  97058-4 0  9992
2 32958  98.6793   7.5396 0009773  68.5046 291.7172 14.19544924920728
GOES 14                 
1 35491U 09033A   26064.76564220  .00000119  00000+0  00000+0 0  9996
2 35491   1.4228  84.4012 0001794 254.3636 301.3765  1.00100039  5554
DMSP 5D-3 F18 (USA 210) 
1 35951U 09057A   26064.75210126  .00000355  00000+0  20685-3 0  9992
2 35951  98.8958  45.7948 0010901 179.4396 180.6791 14.14833056844967
EWS-G2 (GOES 15)        
1 36411U 10008A   26064.80975572  .00000015  00000+0  00000+0 0  9999
2 36411   1.0123  85.1210 0001969  18.8974  54.5005  1.00269633 58601
COMS 1                  
1 36744U 10032A   26064.69077954 -.00000349  00000+0  00000+0 0  9990
2 36744   4.5390  76.8526 0001236 289.2592 174.1630  1.00271991 50052
FENGYUN 3B              
1 37214U 10059A   26064.84679131  .00000112  00000+0  81427-4 0  9998
2 37214  98.9770 110.3588 0023018 118.6046 329.3343 14.14815854792810
SUOMI NPP               
1 37849U 11061A   26064.79608631  .00000158  00000+0  96117-4 0  9999
2 37849  98.7866   6.4298 0000399 267.7572  92.3558 14.19542345743771
METEOSAT-10 (MSG-3)     
1 38552U 12035B   26064.79718900 -.00000011  00000+0  00000+0 0  9994
2 38552   4.4270  61.4577 0002495 281.7598 107.5520  1.00267713 49822
METOP-B                 
1 38771U 12049A   26064.78470048  .00000167  00000+0  96102-4 0  9993
2 38771  98.6650 118.2827 0001199 287.3288  72.7758 14.21443259698575
INSAT-3D                
1 39216U 13038B   26064.71833576 -.00000345  00000+0  00000+0 0  9995
2 39216   1.6588  83.8964 0001722 245.4836 222.1574  1.00272923 46046
FENGYUN 3C              
1 39260U 13052A   26064.85939490  .00000178  00000+0  11175-3 0  9999
2 39260  98.4886  43.5342 0014021 324.8121  35.2127 14.15727594643946
METEOR-M 2              
1 40069U 14037A   26064.88221899 -.00000126  00000+0 -38211-4 0  9998
2 40069  98.5020  44.3337 0005594 349.1384  10.9673 14.21425991604648
HIMAWARI-8              
1 40267U 14060A   26064.78794816 -.00000282  00000+0  00000+0 0  9999
2 40267   0.0259 239.6563 0000732  98.2059 249.9634  1.00271648 41726
FENGYUN 2G              
1 40367U 14090A   26064.53164113 -.00000308  00000+0  00000+0 0  9996
2 40367   5.3770  74.0740 0001795 152.3753 227.8922  1.00274179 40966
