[{"OBJECT_NAME":"DMSP 5D-3 F16 (USA 172)","OBJECT_ID":"2003-048A","EPOCH":"2026-03-05T19:35:27.939840","MEAN_MOTION":14.14460344,"ECCENTRICITY":0.0008178,"INCLINATION":98.9996,"RA_OF_ASC_NODE":87.9142,"ARG_OF_PERICENTER":82.3141,"MEAN_ANOMALY":330.2861,"EPHEMERIS_TYPE":0,"CLASSIFICATION_TYPE":"U","NORAD_CAT_ID":28054,"ELEMENT_SET_NO":999,"REV_AT_EPOCH":15487,"BSTAR":0.0001208,"MEAN_MOTION_DOT":1.86e-6,"MEAN_MOTION_DDOT":0},{"OBJECT_NAME":"METEOSAT-9 (MSG-2)","OBJECT_ID":"2005-049B","EPOCH":"2026-03-05T14:12:55.418112","MEAN_MOTION":1.00277983,"ECCENTRICITY":0.0001671,"INCLINATION":9.1276,"RA_OF_ASC_NODE":55.1704,"ARG_OF_PERICENTER":223.3348,"MEAN_ANOMALY":143.8053,"EPHEMERIS_TYPE":0,"CLASSIFICATION_TYPE":"U","NORAD_CAT_ID":28912,"ELEMENT_SET_NO":999,"REV_AT_EPOCH":596,"BSTAR":0,"MEAN_MOTION_DOT":1.19e-6,"MEAN_MOTION_DDOT":0},{"OBJECT_NAME":"DMSP 5D-3 F17 (USA 191)","OBJECT_ID":"2006-050A","EPOCH":"2026-03-05T17:14:03.352704","MEAN_MOTION":14.1496187,"ECCENTRICITY":0.0009989,"INCLINATION":98.7413,"RA_OF_ASC_NODE":73.394,"ARG_OF_PERICENTER":358.3688,"MEAN_ANOMALY":1.7451,"EPHEMERIS_TYPE":0,"CLASSIFICATION_TYPE":"U","NORAD_CAT_ID":29522,"ELEMENT_SET_NO":999,"REV_AT_EPOCH":99778,"BSTAR":0.00014645,"MEAN_MOTION_DOT":2.4e-6,"MEAN_MOTION_DDOT":0},{"OBJECT_NAME":"FENGYUN 3A","OBJECT_ID":"2008-026A","EPOCH":"2026-03-05T17:13:20.416224","MEAN_MOTION":14.19544924,"ECCENTRICITY":0.0009773,"INCLINATION":98.6793,"RA_OF_ASC_NODE":7.5396,"ARG_OF_PERICENTER":68.5046,"MEAN_ANOMALY":291.7172,"EPHEMERIS_TYPE":0,"CLASSIFICATION_TYPE":"U","NORAD_CAT_ID":32958,"ELEMENT_SET_NO":999,"REV_AT_EPOCH":92072,"BSTAR":9.7058e-5,"MEAN_MOTION_DOT":1.61e-6,"MEAN_MOTION_DDOT":0},{"OBJECT_NAME":"GOES 14","OBJECT_ID":"2009-033A","EPOCH":"2026-03-05T18:22:31.486080","MEAN_MOTION":1.00100039,"ECCENTRICITY":0.0001794,"INCLINATION":1.4228,"RA_OF_ASC_NODE":84.4012,"ARG_OF_PERICENTER":254.3636,"MEAN_ANOMALY":301.3765,"EPHEMERIS_TYPE":0,"CLASSIFICATION_TYPE":"U","NORAD_CAT_ID":35491,"ELEMENT_SET_NO":999,"REV_AT_EPOCH":555,"BSTAR":0,"MEAN_MOTION_DOT":1.19e-6,"MEAN_MOTION_DDOT":0},{"OBJECT_NAME":"DMSP 5D-3 F18 (USA 210)","OBJECT_ID":"2009-057A","EPOCH":"2026-03-05T18:03:01.548864","MEAN_MOTION":14.14833056,"ECCENTRICITY":0.0010901,"INCLINATION":98.8958,"RA_OF_ASC_NODE":45.7948,"ARG_OF_PERICENTER":179.4396,"MEAN_ANOMALY":180.6791,"EPHEMERIS_TYPE":0,"CLASSIFICATION_TYPE":"U","NORAD_CAT_ID":35951,"ELEMENT_SET_NO":999,"REV_AT_EPOCH":84496,"BSTAR":0.00020685,"MEAN_MOTION_DOT":3.55e-6,"MEAN_MOTION_DDOT":0},{"OBJECT_NAME":"EWS-G2 (GOES 15)","OBJECT_ID":"2010-008A","EPOCH":"2026-03-05T19:26:02.894208","MEAN_MOTION":1.00269633,"ECCENTRICITY":0.0001969,"INCLINATION":1.0123,"RA_OF_ASC_NODE":85.121,"ARG_OF_PERICENTER":18.8974,"MEAN_ANOMALY":54.5005,"EPHEMERIS_TYPE":0,"CLASSIFICATION_TYPE":"U","NORAD_CAT_ID":36411,"ELEMENT_SET_NO":999,"REV_AT_EPOCH":5860,"BSTAR":0,"MEAN_MOTION_DOT":1.5e-7,"MEAN_MOTION_DDOT":0},{"OBJECT_NAME":"COMS 1","OBJECT_ID":"2010-032A","EPOCH":"2026-03-05T16:34:43.352256","MEAN_MOTION":1.00271991,"ECCENTRICITY":0.0001236,"INCLINATION":4.539,"RA_OF_ASC_NODE":76.8526,"ARG_OF_PERICENTER":289.2592,"MEAN_ANOMALY":174.163,"EPHEMERIS_TYPE":0,"CLASSIFICATION_TYPE":"U","NORAD_CAT_ID":36744,"ELEMENT_SET_NO":999,"REV_AT_EPOCH":5005,"BSTAR":0,"MEAN_MOTION_DOT":-3.49e-6,"MEAN_MOTION_DDOT":0},{"OBJECT_NAME":"FENGYUN 3B","OBJECT_ID":"2010-059A","EPOCH":"2026-03-05T20:19:22.769184","MEAN_MOTION":14.14815854,"ECCENTRICITY":0.0023018,"INCLINATION":98.977,"RA_OF_ASC_NODE":110.3588,"ARG_OF_PERICENTER":118.6046,"MEAN_ANOMALY":329.3343,"EPHEMERIS_TYPE":0,"CLASSIFICATION_TYPE":"U","NORAD_CAT_ID":37214,"ELEMENT_SET_NO":999,"REV_AT_EPOCH":79281,"BSTAR":8.1427e-5,"MEAN_MOTION_DOT":1.12e-6,"MEAN_MOTION_DDOT":0},{"OBJECT_NAME":"SUOMI NPP","OBJECT_ID":"2011-061A","EPOCH":"2026-03-05T19:06:21.857184","MEAN_MOTION":14.19542345,"ECCENTRICITY":3.99e-5,"INCLINATION":98.7866,"RA_OF_ASC_NODE":6.4298,"ARG_OF_PERICENTER":267.7572,"MEAN_ANOMALY":92.3558,"EPHEMERIS_TYPE":0,"CLASSIFICATION_TYPE":"U","NORAD_CAT_ID":37849,"ELEMENT_SET_NO":999,"REV_AT_EPOCH":74377,"BSTAR":9.6117e-5,"MEAN_MOTION_DOT":1.58e-6,"MEAN_MOTION_DDOT":0},{"OBJECT_NAME":"METEOSAT-10 (MSG-3)","OBJECT_ID":"2012-035B","EPOCH":"2026-03-05T19:07:57.129600","MEAN_MOTION":1.00267713,"ECCENTRICITY":0.0002495,"INCLINATION":4.427,"RA_OF_ASC_NODE":61.4577,"ARG_OF_PERICENTER":281.7598,"MEAN_ANOMALY":107.552,"EPHEMERIS_TYPE":0,"CLASSIFICATION_TYPE":"U","NORAD_CAT_ID":38552,"ELEMENT_SET_NO":999,"REV_AT_EPOCH":4982,"BSTAR":0,"MEAN_MOTION_DOT":-1.1e-7,"MEAN_MOTION_DDOT":0},{"OBJECT_NAME":"METOP-B","OBJECT_ID":"2012-049A","EPOCH":"2026-03-05T18:49:58.121472","MEAN_MOTION":14.21443259,"ECCENTRICITY":0.0001199,"INCLINATION":98.665,"RA_OF_ASC_NODE":118.2827,"ARG_OF_PERICENTER":287.3288,"MEAN_ANOMALY":72.7758,"EPHEMERIS_TYPE":0,"CLASSIFICATION_TYPE":"U","NORAD_CAT_ID":38771,"ELEMENT_SET_NO":999,"REV_AT_EPOCH":69857,"BSTAR":9.6102e-5,"MEAN_MOTION_DOT":1.67e-6,"MEAN_MOTION_DDOT":0},{"OBJECT_NAME":"INSAT-3D","OBJECT_ID":"2013-038B","EPOCH":"2026-03-05T17:14:24.209664","MEAN_MOTION":1.00272923,"ECCENTRICITY":0.0001722,"INCLINATION":1.6588,"RA_OF_ASC_NODE":83.8964,"ARG_OF_PERICENTER":245.4836,"MEAN_ANOMALY":222.1574,"EPHEMERIS_TYPE":0,"CLASSIFICATION_TYPE":"U","NORAD_CAT_ID":39216,"ELEMENT_SET_NO":999,"REV_AT_EPOCH":4604,"BSTAR":0,"MEAN_MOTION_DOT":-3.45e-6,"MEAN_MOTION_DDOT":0},{"OBJECT_NAME":"FENGYUN 3C","OBJECT_ID":"2013-052A","EPOCH":"2026-03-05T20:37:31.719360","MEAN_MOTION":14.15727594,"ECCENTRICITY":0.0014021,"INCLINATION":98.4886,"RA_OF_ASC_NODE":43.5342,"ARG_OF_PERICENTER":324.8121,"MEAN_ANOMALY":35.2127,"EPHEMERIS_TYPE":0,"CLASSIFICATION_TYPE":"U","NORAD_CAT_ID":39260,"ELEMENT_SET_NO":999,"REV_AT_EPOCH":64394,"BSTAR":0.00011175,"MEAN_MOTION_DOT":1.78e-6,"MEAN_MOTION_DDOT":0},{"OBJECT_NAME":"METEOR-M 2","OBJECT_ID":"2014-037A","EPOCH":"2026-03-05T21:10:23.720736","MEAN_MOTION":14.21425991,"ECCENTRICITY":0.0005594,"INCLINATION":98.502,"RA_OF_ASC_NODE":44.3337,"ARG_OF_PERICENTER":349.1384,"MEAN_ANOMALY":10.9673,"EPHEMERIS_TYPE":0,"CLASSIFICATION_TYPE":"U","NORAD_CAT_ID":40069,"ELEMENT_SET_NO":999,"REV_AT_EPOCH":60464,"BSTAR":-3.8211e-5,"MEAN_MOTION_DOT":-1.26e-6,"MEAN_MOTION_DDOT":0},{"OBJECT_NAME":"HIMAWARI-8","OBJECT_ID":"2014-060A","EPOCH":"2026-03-05T18:54:38.721024","MEAN_MOTION":1.00271648,"ECCENTRICITY":7.32e-5,"INCLINATION":0.0259,"RA_OF_ASC_NODE":239.6563,"ARG_OF_PERICENTER":98.2059,"MEAN_ANOMALY":249.9634,"EPHEMERIS_TYPE":0,"CLASSIFICATION_TYPE":"U","NORAD_CAT_ID":40267,"ELEMENT_SET_NO":999,"REV_AT_EPOCH":4172,"BSTAR":0,"MEAN_MOTION_DOT":-2.82e-6,"MEAN_MOTION_DDOT":0},{"OBJECT_NAME":"FENGYUN 2G","OBJECT_ID":"2014-090A","EPOCH":"2026-03-05T12:45:33.793632","MEAN_MOTION":1.00274179,"ECCENTRICITY":0.0001795,"INCLINATION":5.377,"RA_OF_ASC_NODE":74.074,"ARG_OF_PERICENTER":152.3753,"MEAN_ANOMALY":227.8922,"EPHEMERIS_TYPE":0,"CLASSIFICATION_TYPE":"U","NORAD_CAT_ID":40367,"ELEMENT_SET_NO":999,"REV_AT_EPOCH":4096,"BSTAR":0,"MEAN_MOTION_DOT":-3.08e-6,"MEAN_MOTION_DDOT":0}]
